OBJECT_NAME,OBJECT_ID,EPOCH,MEAN_MOTION,ECCENTRICITY,INCLINATION,RA_OF_ASC_NODE,ARG_OF_PERICENTER,MEAN_ANOMALY,EPHEMERIS_TYPE,CLASSIFICATION_TYPE,NORAD_CAT_ID,ELEMENT_SET_NO,REV_AT_EPOCH,BSTAR,MEAN_MOTION_DOT,MEAN_MOTION_DDOT
GALAXY 33 (G-33),2022-128A,2026-06-16T12:22:57.936576,1.00271787,.00016036,0.0106,18.3750,69.2524,229.9028,0,U,54026,999,1373,0,.77E-6,0
GALAXY 34 (G-34),2022-128B,2026-06-15T12:26:48.200352,1.00271904,.00013101,0.0129,6.0107,96.4818,219.0064,0,U,54027,999,1389,0,.61E-6,0
ANGOSAT 2,2022-131A,2026-06-16T14:50:02.753952,1.00271522,.00006887,0.0286,79.1177,34.6138,36.6624,0,U,54033,999,1347,0,.133E-5,0
EUTELSAT HOTBIRD 13F,2022-134A,2026-06-15T13:07:14.323584,1.00270937,.00022445,0.0519,292.7335,60.0843,120.8350,0,U,54048,999,1336,0,.89E-6,0
LDPE-2,2022-144A,2026-06-16T12:58:40.139040,1.00531838,.00018172,5.6120,63.6583,104.4158,133.3059,0,U,54219,999,1183,0,.124E-5,0
EUTELSAT HOTBIRD 13G,2022-146A,2026-06-15T13:07:14.323584,1.00269766,.00017055,0.0509,232.5107,316.5388,284.5981,0,U,54225,999,745,0,.89E-6,0
ZHONGXING-19,2022-148A,2026-06-16T13:47:23.761248,1.00270255,.00023133,0.0228,18.5559,92.9162,163.4151,0,U,54230,999,1337,0,0,0
GALAXY 31 (G-31),2022-153A,2026-06-16T12:26:20.114304,1.00270941,.0001016,0.0149,39.8765,36.2552,254.2250,0,U,54243,999,712,0,.12E-6,0
GALAXY 32 (G-32),2022-153B,2026-06-14T22:56:24.476640,1.00491998,.0015287,0.0165,349.6788,254.3091,272.5395,0,U,54244,999,1312,0,-.197E-5,0
EUTELSAT 10B,2022-157A,2026-06-16T13:03:36.527328,1.00266288,.00011907,0.0645,98.4511,13.0107,359.2484,0,U,54259,999,1302,0,.66E-6,0
GALAXY 35 (G-35),2022-170A,2026-06-16T11:52:51.710880,1.00268559,.00018498,0.0201,28.2868,58.7079,262.8757,0,U,54741,999,1288,0,0,0
GALAXY 36 (G-36),2022-170B,2026-06-16T12:35:26.741184,1.00270253,.00025022,0.0181,256.2325,188.0884,280.3329,0,U,54742,999,1276,0,-.187E-5,0
METEOSAT-12 (MTG-I1),2022-170C,2026-06-16T02:44:46.209408,1.00272351,.00031434,0.7370,22.7991,71.6629,210.7035,0,U,54743,999,1296,0,-.9E-7,0
SHIJIAN-23 (SJ-23),2023-002A,2026-06-15T17:48:06.069024,1.00087863,.0003808,3.7140,78.3309,271.7919,329.9907,0,U,55131,999,1249,0,-.244E-5,0
APSTAR-6E,2023-005A,2026-06-15T17:07:09.418944,1.00268070,.00011143,0.0372,251.5524,313.0083,90.2366,0,U,55239,999,1867,0,-.316E-5,0
USA 342,2023-008A,2026-06-12T15:01:23.172096,1.00272733,.0000206,0.0059,338.0459,258.5222,273.5711,0,U,55263,999,1247,0,0,0
LDPE-3A,2023-008B,2026-06-16T11:54:38.688768,0.99144694,.00010885,2.3464,81.6711,64.6793,190.8462,0,U,55264,999,1180,0,.37E-6,0
ELEKTRO-L 4,2023-016A,2026-06-15T19:20:26.037024,1.00270697,.00007543,0.0735,165.6402,8.2244,186.1328,0,U,55506,999,1232,0,-.57E-6,0
AMAZONAS NEXUS,2023-017A,2026-06-15T12:46:16.334400,1.00267577,.00049166,0.0383,35.9590,30.4729,327.9525,0,U,55508,999,702,0,-.28E-5,0
ZHONGXING-26,2023-023A,2026-06-16T15:52:46.217856,1.00271170,.00032774,0.0663,69.9073,20.9293,177.4142,0,U,55686,999,1222,0,-.356E-5,0
LUCH-5X (OLYMP-K 2),2023-031A,2026-06-15T09:55:57.065952,1.00271794,.0000623,0.0284,59.9062,161.0098,253.7534,0,U,55841,999,1192,0,.36E-6,0
GAOFEN-13 02,2023-036A,2026-06-16T14:23:30.839136,1.00270520,.00041439,1.0203,1.0845,335.5239,292.4346,0,U,55912,999,1208,0,-.221E-5,0
SES-18,2023-038A,2026-06-14T22:52:54.812352,1.00270931,.00002588,0.0148,303.3095,342.6198,217.4462,0,U,55970,999,1208,0,-.96E-6,0
SES-19,2023-038B,2026-06-16T14:05:07.061856,1.00271189,.00013814,0.0104,0.5342,80.6529,260.0435,0,U,55971,999,1208,0,.86E-6,0
INTELSAT 40E (IS-40E),2023-052A,2026-06-15T09:12:23.741568,1.00269497,.00019311,0.0182,12.4035,113.0025,185.3673,0,U,56174,999,1180,0,0,0
VIASAT-3 F1,2023-060A,2026-06-15T07:30:21.690720,1.00270502,.00010072,0.0244,339.9973,93.6302,213.5951,0,U,56370,999,1141,0,0,0
ARCTURUS,2023-060B,2026-06-16T00:26:26.879424,1.00272344,.00025281,2.7726,79.9668,48.7696,214.6630,0,U,56371,999,1144,0,-.64E-6,0
GS-1,2023-060C,2026-06-14T21:58:38.193312,1.00275284,.0003785,2.7203,79.8626,282.6047,319.7725,0,U,56372,999,751,0,-.221E-5,0
BEIDOU-3 G4,2023-066A,2026-06-16T15:23:24.425088,1.00273827,.00043227,0.4871,331.3399,181.3638,123.0801,0,U,56564,999,1138,0,-.283E-5,0
ARABSAT-7B (BADR-8),2023-075A,2026-06-15T04:37:42.665952,1.00270389,.00043798,0.0785,30.3075,352.7494,335.8524,0,U,56757,999,1109,0,.148E-5,0
NVS-01 (IRNSS-1J),2023-076A,2026-06-16T13:37:45.065280,1.00264966,.00031822,2.1670,244.3756,36.2432,318.1169,0,U,56759,999,1110,0,-.337E-5,0
